{"fetched_at":"2026-07-12T17:32:55.584Z","source":"https://celestrak.org/NORAD/elements/gp.php?NAME=NUSAT&FORMAT=JSON","constellation":"satellogic","records":[{"OBJECT_NAME":"NUSAT-47","OBJECT_ID":"2025-276CF","EPOCH":"2026-07-11T18:40:58.048896","CLASSIFICATION_TYPE":"U","MEAN_MOTION":15.20561598,"ECCENTRICITY":0.00001757,"INCLINATION":97.4187,"RA_OF_ASC_NODE":265.998,"ARG_OF_PERICENTER":256.7831,"MEAN_ANOMALY":103.3385,"EPHEMERIS_TYPE":0,"NORAD_CAT_ID":66743,"ELEMENT_SET_NO":999,"REV_AT_EPOCH":3416,"BSTAR":0.0001528413,"MEAN_MOTION_DOT":0.00003277,"MEAN_MOTION_DDOT":0},{"OBJECT_NAME":"NUSAT-53 (JANE GOODALL)","OBJECT_ID":"2026-067S","EPOCH":"2026-07-12T10:25:56.020224","CLASSIFICATION_TYPE":"U","MEAN_MOTION":15.18832027,"ECCENTRICITY":0.0000944,"INCLINATION":97.4569,"RA_OF_ASC_NODE":151.5907,"ARG_OF_PERICENTER":358.8173,"MEAN_ANOMALY":1.3059,"EPHEMERIS_TYPE":0,"NORAD_CAT_ID":68432,"ELEMENT_SET_NO":999,"REV_AT_EPOCH":1577,"BSTAR":0.00016575,"MEAN_MOTION_DOT":0.00003383,"MEAN_MOTION_DDOT":0},{"OBJECT_NAME":"NUSAT-54 (BRANCA MARQUES)","OBJECT_ID":"2026-067AC","EPOCH":"2026-07-11T19:57:19.376928","CLASSIFICATION_TYPE":"U","MEAN_MOTION":15.17976416,"ECCENTRICITY":0.00041936,"INCLINATION":97.4549,"RA_OF_ASC_NODE":150.8436,"ARG_OF_PERICENTER":11.4229,"MEAN_ANOMALY":348.7099,"EPHEMERIS_TYPE":0,"NORAD_CAT_ID":68442,"ELEMENT_SET_NO":999,"REV_AT_EPOCH":1567,"BSTAR":0.00016913498,"MEAN_MOTION_DOT":0.00003369,"MEAN_MOTION_DDOT":0}]}
