NUSAT-47                
1 66743U 25276CF  26192.77844964  .00003277  00000+0  15284-3 0  9998
2 66743  97.4187 265.9980 0000175 256.7831 103.3385 15.20561598 34167
NUSAT-53 (JANE GOODALL) 
1 68432U 26067S   26193.43467616  .00003383  00000+0  16575-3 0  9995
2 68432  97.4569 151.5907 0000944 358.8173   1.3059 15.18832027 15770
NUSAT-54 (BRANCA MARQU*)
1 68442U 26067AC  26192.83147427  .00003369  00000+0  16913-3 0  9994
2 68442  97.4549 150.8436 0004193  11.4229 348.7099 15.17976416 15673
